0 FENGYUN 1C DEB
1 31156U 99025BHJ 13285.71522755  .00024171  00000-0  37553-2 0  3897
2 31156 099.0411 105.3418 0067428 204.4605 159.8887 14.71515521347127
0 FENGYUN 1C DEB
1 31156U 99025BHJ 13289.72595297  .00029126  00000-0  44866-2 0  3905
2 31156 099.0389 109.7935 0067368 191.8545 170.6244 14.71838045347710
